IRIDIUM 116             
1 43072U 17083C   23289.68832377  .00000553  00000+0  19052-3 0  9995
2 43072  86.4027   9.2902 0002327  97.3840 262.7620 14.34219140304496
IRIDIUM 130             
1 43073U 17083D   23289.72637858  .00000175  00000+0  55577-4 0  9991
2 43073  86.4033   9.4549 0002062  94.2504 265.8928 14.34217490304448
IRIDIUM 151             
1 43074U 17083E   23289.70100655  .00000603  00000+0  20808-3 0  9994
2 43074  86.4029   9.3205 0002383  92.3404 267.8064 14.34220552304464
IRIDIUM 134             
1 43075U 17083F   23289.66929311  .00000609  00000+0  21047-3 0  9990
2 43075  86.4030   9.3285 0002005  96.3024 263.8400 14.34220836304429
IRIDIUM 137             
1 43076U 17083G   23289.68198173  .00000594  00000+0  20508-3 0  9991
2 43076  86.4032   9.3967 0002435  99.0261 261.1210 14.34219279304495
IRIDIUM 141             
1 43077U 17083H   23289.67563108  .00000591  00000+0  20412-3 0  9996
2 43077  86.4026   9.2850 0002242  89.6496 270.4956 14.34221995304498
IRIDIUM 153             
1 43078U 17083J   23289.62781500  .00000534  00000+0  18364-3 0  9990
2 43078  86.3990 337.7778 0002131  83.8976 276.2462 14.34219149305598
IRIDIUM 131             
1 43079U 17083K   23289.66295357  .00000218  00000+0  70657-4 0  9998
2 43079  86.4031   9.4111 0002122  92.2772 267.8667 14.34216836304422
